[Satellite]
VERSION=1.1
NAME=AMC-9 (GE-12)
NICKNAME=AMC-9 (GE-12)
TLE1=1 27820U 03024A   17186.29977359 -.00000198  00000-0  00000-0 0  9991
TLE2=2 27820   0.0199  39.5563 0040383   0.9834 264.9150  1.00214158 51604
